[{"OBJECT_NAME":"CHUANGXIN 1-03 (CX-1-03)","OBJECT_ID":"2011-068A","EPOCH":"2026-03-09T23:48:05.343264","MEAN_MOTION":14.30514213,"ECCENTRICITY":0.00158467,"INCLINATION":98.7066,"RA_OF_ASC_NODE":86.521,"ARG_OF_PERICENTER":50.1728,"MEAN_ANOMALY":9.9604,"EPHEMERIS_TYPE":0,"CLASSIFICATION_TYPE":"U","NORAD_CAT_ID":37930,"ELEMENT_SET_NO":999,"REV_AT_EPOCH":74647,"BSTAR":-1.9220958e-5,"MEAN_MOTION_DOT":-9.5e-7,"MEAN_MOTION_DDOT":0},{"OBJECT_NAME":"IDEFIX & ARIANE 42P R\/B","OBJECT_ID":"2002-021B","EPOCH":"2026-03-09T18:36:46.968768","MEAN_MOTION":14.31026352,"ECCENTRICITY":0.00115761,"INCLINATION":98.5868,"RA_OF_ASC_NODE":7.3808,"ARG_OF_PERICENTER":182.0346,"MEAN_ANOMALY":178.0792,"EPHEMERIS_TYPE":0,"CLASSIFICATION_TYPE":"U","NORAD_CAT_ID":27422,"ELEMENT_SET_NO":999,"REV_AT_EPOCH":24403,"BSTAR":0.00016191613,"MEAN_MOTION_DOT":3.83e-6,"MEAN_MOTION_DDOT":0}]
